{
    "satellites": [
        {
            "name": "starlink338",
            "title": "Starlink-338 (G6-99)",
            "tle": [
                "1 67174C 25303M   26005.11090278 -.02248800  00000+0 -33147-1 0    51",
                "2 67174  42.9997 315.0415 0001000 259.6291   2.7857 15.56767022    12"
            ],
            "stdMag": 5,
            "noradId": "67174",
            "tleUrl": "http://celestrak.org/NORAD/elements/supplemental/sup-gp.php?FILE=starlink&FORMAT=tle",
            "launchDate": "2025-12-17T13:42:10.000Z",
            "active": true,
            "batch": [
                {
                    "noradId": "67174",
                    "tle": [
                        "1 67174C 25303M   26005.11090278 -.02248800  00000+0 -33147-1 0    51",
                        "2 67174  42.9997 315.0415 0001000 259.6291   2.7857 15.56767022    12"
                    ]
                },
                {
                    "noradId": "67173",
                    "tle": [
                        "1 67173C 25303L   26005.11437500 -.02247600  00000+0 -33150-1 0    54",
                        "2 67173  42.9996 315.0245 0000949 256.8558  23.7353 15.56749887    10"
                    ]
                },
                {
                    "noradId": "67167",
                    "tle": [
                        "1 67167C 25303E   26005.11020833 -.02249400  00000+0 -33153-1 0    57",
                        "2 67167  42.9996 315.0648 0001059 253.3386 357.5633 15.56770508    17"
                    ]
                },
                {
                    "noradId": "67166",
                    "tle": [
                        "1 67166C 25303D   26005.10812500 -.02249400  00000+0 -33142-1 0    53",
                        "2 67166  42.9996 315.0869 0000837 259.4631 336.0473 15.56780601    13"
                    ]
                },
                {
                    "noradId": "67165",
                    "tle": [
                        "1 67165C 25303C   26005.10673611 -.02249800  00000+0 -33140-1 0    52",
                        "2 67165  42.9997 315.0914 0000928 257.4424 331.5081 15.56786532    17"
                    ]
                },
                {
                    "noradId": "67164",
                    "tle": [
                        "1 67164C 25303B   26005.10673611 -.02248700  00000+0 -33125-1 0    52",
                        "2 67164  42.9997 315.0977 0000883 259.5218 326.9850 15.56784888    13"
                    ]
                }
            ]
        }
    ],
    "config": {}
}